- !!map
  id:                 43
  name:               Ervo
  radius:             192000
  atmosphereAlt:      10000
  mass:               877470296318715100000
  stdGravParam:       58564999987.2
  soi:                1216750398.8573022
  orbit:
    semiMajorAxis:    1013380000000
    eccentricity:     0.4
    inclination:      10.5
    argOfPeriapsis:   151.7
    ascNodeLongitude: 35.9
  meanAnomaly0:       205
  epoch:              6
  orbiting:           0
  color:              0x77726d

- !!map
  id:                 44
  name:               Archae
  radius:             55000
  mass:               26668069685210436000
  stdGravParam:       1779906975
  soi:                367385.88985377084
  orbit:
    semiMajorAxis:    1486000
    eccentricity:     0.03
    inclination:      1.2
    argOfPeriapsis:   30
    ascNodeLongitude: 130
  meanAnomaly0:       25
  epoch:              6
  orbiting:           43
  color:              0x353335

- !!map
  id:                 45
  name:               Soden
  radius:             61000
  mass:               54673216142516820000
  stdGravParam:       3649054465
  soi:                2848252872.9180303
  orbit:
    semiMajorAxis:    7200000000000
    eccentricity:     0.84123
    inclination:      11.929
    argOfPeriapsis:   311.53
    ascNodeLongitude: 144.32
  meanAnomaly0:       358.04
  epoch:              6
  orbiting:           0
  color:              0xe9e0eb

- !!map
  id:                 46
  name:               Lon
  radius:             5000
  mass:               7346575670856870
  stdGravParam:       490332.5
  soi:                41357.43701358759
  orbit:
    semiMajorAxis:    1462950
    eccentricity:     0.2
    inclination:      9.8
    argOfPeriapsis:   7
    ascNodeLongitude: 124
  meanAnomaly0:       123
  epoch:              6
  orbiting:           45
  color:              0xcfc9a8
